{"fetched_at":"2026-03-29T02:12:04Z","count":15717,"tles":[{"name":"BANDWAGON-2 OBJECT Y","line1":"1 62399U 24247Y   26087.01395760  .00035943  00000+0  79145-3 0  9994","line2":"2 62399  44.9996 351.3620 0007016 137.1767 222.9670 15.43372001 70841","category":"Other"}]}